{"type":"FeatureCollection","features":[{"type":"Feature","properties":{},"geometry":{"type":"Polygon","coordinates":[[[3.145,39.79],[3.241,39.757],[3.342,39.787],[3.396,39.777],[3.449,39.761],[3.462,39.698],[3.415,39.627],[3.349,39.556],[3.293,39.477],[3.245,39.387],[3.155,39.333],[3.073,39.301],[2.9,39.368],[2.8,39.385],[2.77,39.41],[2.746,39.51],[2.701,39.542],[2.634,39.556],[2.576,39.531],[2.5,39.478],[2.459,39.53],[2.394,39.54],[2.37,39.572],[2.371,39.613],[2.785,39.855],[2.905,39.908],[3.159,39.971],[3.198,39.961],[3.164,39.924],[3.167,39.908],[3.199,39.89],[3.191,39.861],[3.159,39.837],[3.145,39.79]]]}},{"type":"Feature","properties":{},"geometry":{"type":"Polygon","coordinates":[[[4.294,39.842],[4.275,39.83],[3.968,39.946],[3.867,39.959],[3.843,39.976],[3.845,40.036],[3.853,40.063],[4.059,40.075],[4.226,40.032],[4.315,39.917],[4.322,39.898],[4.294,39.842]]]}},{"type":"Feature","properties":{},"geometry":{"type":"Polygon","coordinates":[[[1.594,38.672],[1.571,38.659],[1.505,38.671],[1.406,38.671],[1.402,38.711],[1.417,38.74],[1.436,38.768],[1.497,38.712],[1.593,38.701],[1.594,38.672]]]}},{"type":"Feature","properties":{},"geometry":{"type":"Polygon","coordinates":[[[1.445,38.919],[1.409,38.857],[1.257,38.879],[1.223,38.904],[1.256,38.973],[1.3,38.982],[1.303,39.031],[1.349,39.081],[1.564,39.121],[1.613,39.087],[1.624,39.039],[1.495,38.933],[1.445,38.919]]]}},{"type":"Feature","properties":{},"geometry":{"type":"Polygon","coordinates":[[[6.0,45.0],[6.0,29.0],[-10.583,29.0],[-10.486,29.065],[-10.201,29.38],[-10.01,29.641],[-9.853,29.809],[-9.743,29.958],[-9.667,30.109],[-9.624,30.353],[-9.653,30.448],[-9.773,30.603],[-9.854,30.645],[-9.875,30.718],[-9.832,30.847],[-9.833,31.07],[-9.809,31.425],[-9.675,31.711],[-9.347,32.086],[-9.287,32.241],[-9.249,32.486],[-9.246,32.572],[-8.836,32.92],[-8.596,33.187],[-8.513,33.252],[-8.301,33.374],[-7.562,33.64],[-7.145,33.83],[-6.901,33.969],[-6.756,34.133],[-6.353,34.776],[-5.958,35.681],[-5.925,35.786],[-5.748,35.816],[-5.623,35.829],[-5.522,35.862],[-5.397,35.93],[-5.278,35.903],[-5.338,35.857],[-5.338,35.745],[-5.253,35.615],[-5.105,35.468],[-4.837,35.281],[-4.628,35.206],[-4.33,35.161],[-3.982,35.243],[-3.788,35.245],[-3.693,35.28],[-3.591,35.228],[-3.395,35.212],[-3.206,35.239],[-3.063,35.317],[-2.972,35.407],[-2.958,35.363],[-2.954,35.315],[-2.926,35.287],[-2.87,35.173],[-2.84,35.128],[-2.731,35.135],[-2.637,35.113],[-2.424,35.123],[-2.22,35.104],[-2.018,35.085],[-1.913,35.094],[-1.674,35.183],[-1.484,35.303],[-1.336,35.364],[-1.205,35.496],[-1.088,35.579],[-0.917,35.668],[-0.426,35.862],[-0.351,35.863],[-0.189,35.819],[-0.048,35.833],[0.048,35.901],[0.152,36.063],[0.312,36.162],[0.515,36.262],[0.791,36.357],[0.972,36.444],[1.257,36.52],[1.975,36.568],[2.343,36.61],[2.593,36.601],[2.846,36.739],[2.973,36.784],[3.521,36.795],[3.779,36.896],[4.758,36.896],[4.878,36.862],[4.995,36.808],[5.196,36.677],[5.295,36.648],[5.425,36.675],[5.725,36.8],[6.0,36.852],[6.0,43.101],[5.809,43.098],[5.672,43.178],[5.407,43.229],[5.32,43.345],[5.2,43.352],[5.12,43.349],[5.073,43.367],[5.061,43.406],[5.06,43.445],[4.976,43.427],[4.912,43.427],[4.874,43.412],[4.844,43.394],[4.808,43.405],[4.787,43.401],[4.789,43.379],[4.712,43.373],[4.629,43.387],[4.41,43.447],[4.376,43.456],[4.224,43.48],[4.163,43.504],[4.113,43.563],[4.075,43.582],[4.053,43.593],[3.911,43.563],[3.862,43.516],[3.785,43.462],[3.259,43.193],[3.163,43.081],[3.052,42.915],[3.043,42.838],[3.091,42.591],[3.198,42.461],[3.211,42.431],[3.24,42.368],[3.288,42.344],[3.307,42.289],[3.219,42.26],[3.166,42.256],[3.15,42.162],[3.175,42.136],[3.225,42.111],[3.238,42.082],[3.248,41.944],[3.147,41.861],[3.005,41.767],[2.311,41.467],[2.146,41.321],[2.083,41.287],[1.567,41.196],[1.206,41.098],[1.033,41.062],[0.817,40.892],[0.715,40.823],[0.796,40.804],[0.891,40.722],[0.859,40.686],[0.721,40.63],[0.66,40.613],[0.627,40.622],[0.596,40.615],[0.364,40.319],[0.158,40.107],[0.043,40.014],[-0.075,39.876],[-0.327,39.52],[-0.329,39.417],[-0.205,39.063],[-0.134,38.969],[-0.034,38.891],[0.155,38.825],[0.202,38.759],[0.136,38.697],[-0.053,38.586],[-0.381,38.436],[-0.521,38.317],[-0.551,38.203],[-0.647,38.152],[-0.683,37.992],[-0.742,37.886],[-0.753,37.85],[-0.815,37.77],[-0.823,37.712],[-0.722,37.631],[-0.772,37.596],[-0.822,37.581],[-0.938,37.571],[-1.328,37.561],[-1.641,37.387],[-1.798,37.233],[-1.939,36.946],[-2.112,36.777],[-2.188,36.745],[-2.306,36.82],[-2.453,36.831],[-2.596,36.806],[-2.671,36.748],[-2.788,36.715],[-2.902,36.743],[-3.149,36.758],[-3.259,36.756],[-3.431,36.708],[-3.579,36.74],[-3.828,36.756],[-4.367,36.718],[-4.435,36.7],[-4.502,36.629],[-4.674,36.506],[-4.935,36.502],[-5.171,36.424],[-5.231,36.374],[-5.33,36.236],[-5.361,36.135],[-5.382,36.134],[-5.407,36.159],[-5.444,36.151],[-5.463,36.074],[-5.551,36.039],[-5.625,36.026],[-5.808,36.088],[-5.961,36.182],[-6.041,36.188],[-6.17,36.334],[-6.226,36.426],[-6.266,36.527],[-6.258,36.565],[-6.269,36.597],[-6.384,36.637],[-6.412,36.729],[-6.328,36.848],[-6.259,36.899],[-6.217,36.914],[-6.321,36.908],[-6.396,36.832],[-6.492,36.955],[-6.885,37.194],[-6.859,37.249],[-6.864,37.279],[-6.929,37.215],[-6.975,37.198],[-7.175,37.209],[-7.406,37.179],[-7.494,37.168],[-7.834,37.006],[-7.94,37.005],[-8.137,37.077],[-8.484,37.1],[-8.598,37.121],[-8.739,37.075],[-8.848,37.076],[-8.935,37.016],[-8.998,37.032],[-8.926,37.166],[-8.814,37.431],[-8.819,37.592],[-8.792,37.733],[-8.823,37.872],[-8.879,37.959],[-8.802,38.184],[-8.811,38.3],[-8.881,38.447],[-8.668,38.424],[-8.734,38.482],[-8.799,38.518],[-8.862,38.51],[-8.915,38.512],[-9.096,38.455],[-9.187,38.438],[-9.213,38.448],[-9.203,38.539],[-9.25,38.657],[-9.178,38.688],[-9.093,38.697],[-9.021,38.747],[-8.977,38.803],[-9.0,38.903],[-8.938,38.998],[-8.792,39.078],[-8.867,39.066],[-8.954,39.016],[-9.091,38.835],[-9.136,38.743],[-9.252,38.713],[-9.357,38.698],[-9.41,38.708],[-9.474,38.731],[-9.48,38.799],[-9.475,38.853],[-9.431,38.96],[-9.414,39.112],[-9.353,39.248],[-9.357,39.284],[-9.375,39.338],[-9.32,39.391],[-9.251,39.426],[-9.148,39.543],[-9.004,39.821],[-8.838,40.116],[-8.851,40.152],[-8.887,40.179],[-8.873,40.259],[-8.772,40.606],[-8.732,40.651],[-8.685,40.753],[-8.674,40.917],[-8.656,41.029],[-8.66,41.086],[-8.675,41.154],[-8.738,41.285],[-8.806,41.56],[-8.811,41.652],[-8.755,41.698],[-8.846,41.705],[-8.888,41.765],[-8.878,41.832],[-8.777,41.941],[-8.852,41.927],[-8.878,41.947],[-8.887,42.105],[-8.772,42.211],[-8.691,42.274],[-8.729,42.287],[-8.816,42.285],[-8.81,42.334],[-8.769,42.358],[-8.73,42.412],[-8.776,42.435],[-8.812,42.47],[-8.81,42.562],[-8.8,42.6],[-8.812,42.64],[-8.988,42.586],[-9.033,42.594],[-9.035,42.662],[-8.937,42.767],[-8.927,42.799],[-9.042,42.814],[-9.127,42.865],[-9.179,42.911],[-9.235,42.977],[-9.236,43.036],[-9.178,43.174],[-9.096,43.214],[-9.025,43.239],[-8.874,43.334],[-8.666,43.317],[-8.537,43.337],[-8.422,43.386],[-8.355,43.397],[-8.249,43.439],[-8.252,43.497],[-8.289,43.54],[-8.257,43.58],[-8.137,43.629],[-8.005,43.694],[-7.853,43.707],[-7.698,43.765],[-7.595,43.727],[-7.504,43.74],[-7.399,43.696],[-7.262,43.595],[-7.061,43.554],[-6.901,43.586],[-6.617,43.592],[-6.476,43.579],[-6.224,43.604],[-6.08,43.595],[-5.847,43.645],[-5.666,43.582],[-5.316,43.553],[-5.105,43.502],[-4.523,43.416],[-4.313,43.415],[-4.015,43.463],[-3.889,43.499],[-3.774,43.478],[-3.605,43.519],[-3.524,43.511],[-3.418,43.452],[-3.046,43.372],[-2.948,43.44],[-2.875,43.454],[-2.607,43.413],[-2.337,43.328],[-2.197,43.322],[-1.991,43.345],[-1.829,43.401],[-1.794,43.407],[-1.631,43.438],[-1.485,43.564],[-1.346,44.02],[-1.246,44.56],[-1.171,44.662],[-1.077,44.69],[-1.153,44.764],[-1.2,44.726],[-1.22,44.687],[-1.245,44.667],[-1.207,45.0],[6.0,45.0]]]}}]}