{"type":"FeatureCollection","features":[{"type":"Feature","properties":{},"geometry":{"type":"MultiLineString","coordinates":[[[-5.996,39.852],[-5.851,39.807],[-5.656,39.797],[-5.215,39.812]],[[-2.734,40.528],[-2.577,40.724]]]}},{"type":"Feature","properties":{},"geometry":{"type":"MultiLineString","coordinates":[[[-2.837,41.928],[-2.542,41.85],[-2.444,41.797],[-2.445,41.743],[-2.424,41.688],[-2.357,41.605],[-2.498,41.521],[-2.617,41.505],[-2.76,41.528],[-2.866,41.529],[-2.935,41.508],[-3.038,41.524],[-3.176,41.578],[-3.411,41.633],[-3.743,41.688],[-3.941,41.693],[-4.002,41.649],[-4.146,41.631],[-4.372,41.64],[-4.682,41.592],[-5.075,41.489],[-5.307,41.464],[-5.378,41.516],[-5.518,41.527],[-5.726,41.498],[-5.838,41.492],[-5.888,41.474],[-5.971,41.49],[-6.092,41.543],[-6.178,41.55],[-6.244,41.516],[-6.289,41.455],[-6.403,41.375],[-6.566,41.304],[-6.69,41.214],[-6.776,41.108],[-6.883,41.062],[-7.011,41.079],[-7.085,41.113],[-7.103,41.166],[-7.244,41.189],[-7.651,41.181],[-8.235,41.092],[-8.425,41.084],[-8.555,41.128],[-8.675,41.154]]]}},{"type":"Feature","properties":{},"geometry":{"type":"MultiLineString","coordinates":[[[-4.189,43.011],[-4.102,43.001],[-4.055,42.953],[-4.017,42.861],[-3.963,42.825],[-3.89,42.844],[-3.822,42.842],[-3.757,42.817],[-3.709,42.833],[-3.678,42.888],[-3.627,42.898],[-3.522,42.845],[-3.451,42.807],[-3.337,42.792],[-3.155,42.787],[-3.011,42.755],[-2.905,42.695],[-2.843,42.644],[-2.823,42.602],[-2.756,42.56],[-2.641,42.518],[-2.563,42.507],[-2.522,42.527],[-2.395,42.514],[-2.183,42.466],[-1.994,42.391],[-1.748,42.236],[-1.405,41.978],[-1.11,41.802],[-0.748,41.622],[-0.526,41.479],[-0.444,41.374],[-0.301,41.309],[-0.097,41.284],[0.04,41.306],[0.111,41.375],[0.167,41.411],[0.208,41.413],[0.263,41.399],[0.331,41.368],[0.362,41.328],[0.357,41.28],[0.364,41.256],[0.395,41.254],[0.525,41.249],[0.59,41.22],[0.632,41.165],[0.652,41.119],[0.652,41.083],[0.614,41.038],[0.538,40.982],[0.517,40.904],[0.551,40.802],[0.651,40.745],[0.891,40.722]]]}},{"type":"Feature","properties":{},"geometry":{"type":"MultiLineString","coordinates":[[[1.809,42.627],[1.825,42.693],[1.791,42.732],[1.675,42.783],[1.616,42.856],[1.594,42.97],[1.587,43.149],[1.54,43.298],[1.454,43.415]]]}},{"type":"Feature","properties":{},"geometry":{"type":"MultiLineString","coordinates":[[[4.617,43.71],[4.514,43.702],[4.467,43.683],[4.44,43.65],[4.436,43.627],[4.444,43.613],[4.434,43.591],[4.379,43.56],[4.371,43.528],[4.41,43.447]],[[6.133,46.205],[5.902,46.123],[5.814,46.013],[5.793,45.849],[5.747,45.737],[5.676,45.676],[5.573,45.704],[5.437,45.821],[5.35,45.847],[5.285,45.812],[5.191,45.799],[5.058,45.817],[4.952,45.808],[4.871,45.771],[4.824,45.713],[4.809,45.633],[4.819,45.582],[4.853,45.561],[4.841,45.513],[4.784,45.439],[4.79,45.289],[4.858,45.063],[4.864,44.911],[4.806,44.834],[4.781,44.761],[4.786,44.693],[4.772,44.637],[4.721,44.573],[4.674,44.35],[4.675,44.228],[4.711,44.133],[4.759,44.071],[4.82,44.04],[4.843,44.012],[4.821,43.973],[4.69,43.906],[4.638,43.828],[4.619,43.715],[4.631,43.639],[4.695,43.579],[4.724,43.554],[4.735,43.508],[4.743,43.449],[4.787,43.401]],[[8.25,46.482],[8.068,46.374],[7.955,46.335],[7.799,46.325],[7.653,46.327],[7.471,46.277],[7.205,46.178],[7.089,46.152],[7.02,46.197],[6.866,46.403]]]}},{"type":"Feature","properties":{},"geometry":{"type":"MultiLineString","coordinates":[[[-5.996,39.852],[-6.326,39.764],[-6.533,39.746],[-6.726,39.77],[-6.896,39.757],[-7.118,39.682]],[[-2.733,40.528],[-2.961,40.275],[-3.1,40.156],[-3.226,40.087],[-3.381,40.048],[-3.565,40.038],[-3.739,39.995],[-3.901,39.92],[-4.059,39.881],[-4.213,39.879],[-4.318,39.839],[-4.428,39.867],[-4.628,39.948],[-4.757,39.982],[-4.816,39.968],[-4.889,39.921],[-4.978,39.84],[-5.071,39.803],[-5.217,39.812]],[[-1.906,40.601],[-2.06,40.745],[-2.144,40.797],[-2.242,40.811],[-2.577,40.724]]]}},{"type":"Feature","properties":{},"geometry":{"type":"MultiLineString","coordinates":[[[-7.118,39.682],[-7.454,39.681],[-7.653,39.634],[-7.828,39.541],[-7.982,39.492],[-8.185,39.485],[-8.376,39.468],[-8.521,39.371],[-8.661,39.249],[-8.742,39.115],[-8.792,39.078]]]}},{"type":"Feature","properties":{},"geometry":{"type":"MultiLineString","coordinates":[[[1.454,43.415],[1.453,43.417],[1.409,43.514],[1.409,43.588],[1.361,43.689],[1.22,43.881],[1.082,44.031],[0.861,44.126],[0.509,44.215],[0.323,44.295],[0.304,44.366],[0.255,44.422],[0.137,44.484],[0.003,44.561],[-0.102,44.587],[-0.224,44.588],[-0.343,44.636],[-0.534,44.796],[-0.562,44.83],[-0.567,44.86],[-0.542,44.898],[-0.536,44.952],[-0.548,45.001]]]}},{"type":"Feature","properties":{},"geometry":{"type":"MultiLineString","coordinates":[[[3.083,46.985],[3.022,47.149],[2.916,47.287],[2.893,47.363],[2.917,47.423],[2.883,47.499],[2.789,47.59],[2.614,47.691],[2.36,47.804],[2.145,47.871],[1.971,47.894],[1.845,47.893],[1.769,47.866],[1.608,47.764],[1.364,47.587],[1.158,47.474],[0.99,47.425],[0.815,47.396],[0.635,47.386],[0.428,47.341],[0.207,47.244],[0.075,47.218],[-0.038,47.249],[-0.216,47.364],[-0.418,47.402],[-0.731,47.371],[-1.056,47.375],[-1.249,47.336],[-1.417,47.258],[-1.559,47.216],[-1.633,47.202],[-1.743,47.216]],[[3.083,46.985],[3.168,46.977],[3.249,46.952],[3.329,46.846],[3.49,46.829],[3.625,46.74],[3.724,46.639],[3.749,46.558],[3.86,46.507],[3.984,46.46],[3.99,46.379],[4.039,46.238],[4.101,46.166],[4.101,46.063],[4.033,45.977],[4.052,45.925],[4.157,45.852],[4.213,45.745],[4.219,45.628],[4.256,45.477],[4.2,45.368],[4.132,45.307],[4.083,45.238],[3.953,45.199],[3.91,45.116],[3.922,45.037],[3.904,44.972],[3.928,44.871],[4.07,44.81],[4.169,44.775],[4.2,44.823]]]}}]}